{
  "type": "FeatureCollection",
  "features": [
    {
      "type": "Feature",
      "properties": {
        "norad_id": 33860,
        "name": "IRIDIUM 33 DEB",
        "group": "iridium-33-debris",
        "lat": -1.2889767571932373,
        "lon": -154.85774965072383,
        "alt_km": 677.0594557950099,
        "timestamp": "2025-12-17T15:50:10.165855+00:00",
        "meta_object_name": "IRIDIUM 33 DEB",
        "meta_object_id": "1997-051AD",
        "meta_epoch": "2025-12-17T08:31:52.322880",
        "meta_mean_motion": 14.67425041,
        "meta_eccentricity": 0.00068589,
        "meta_inclination": 86.3832,
        "meta_ra_of_asc_node": 25.1954,
        "meta_arg_of_pericenter": 340.9325,
        "meta_mean_anomaly": 33.3905,
        "meta_ephemeris_type": 0,
        "meta_classification_type": "U",
        "meta_norad_cat_id": 33860,
        "meta_element_set_no": 999,
        "meta_rev_at_epoch": 88790,
        "meta_bstar": 0.00086388868,
        "meta_mean_motion_dot": 4.909e-05,
        "meta_mean_motion_ddot": 0,
        "tle_line1": "1 33860U 97051AD  25351.35546670  .00004909  00000+0  86389-3 0  9992",
        "tle_line2": "2 33860  86.3832  25.1954 0006858 340.9325  33.3905 14.67425041887900"
      },
      "geometry": {
        "type": "Point",
        "coordinates": [
          -154.85774965072383,
          -1.2889767571932373
        ]
      }
    },
    {
      "type": "Feature",
      "properties": {
        "norad_id": 33862,
        "name": "IRIDIUM 33 DEB",
        "group": "iridium-33-debris",
        "lat": -73.38542664178946,
        "lon": -132.4898897425306,
        "alt_km": 704.7376037047807,
        "timestamp": "2025-12-17T15:50:10.165867+00:00",
        "meta_object_name": "IRIDIUM 33 DEB",
        "meta_object_id": "1997-051AF",
        "meta_epoch": "2025-12-17T03:18:37.197792",
        "meta_mean_motion": 14.69547569,
        "meta_eccentricity": 0.00530516,
        "meta_inclination": 86.4091,
        "meta_ra_of_asc_node": 35.5913,
        "meta_arg_of_pericenter": 54.4889,
        "meta_mean_anomaly": 320.1632,
        "meta_ephemeris_type": 0,
        "meta_classification_type": "U",
        "meta_norad_cat_id": 33862,
        "meta_element_set_no": 999,
        "meta_rev_at_epoch": 88888,
        "meta_bstar": 0.0010575322,
        "meta_mean_motion_dot": 6.437e-05,
        "meta_mean_motion_ddot": 0,
        "tle_line1": "1 33862U 97051AF  25351.13793053  .00006437  00000+0  10575-2 0  9990",
        "tle_line2": "2 33862  86.4091  35.5913 0053051  54.4889 320.1632 14.69547569888883"
      },
      "geometry": {
        "type": "Point",
        "coordinates": [
          -132.4898897425306,
          -73.38542664178946
        ]
      }
    },
    {
      "type": "Feature",
      "properties": {
        "norad_id": 33866,
        "name": "IRIDIUM 33 DEB",
        "group": "iridium-33-debris",
        "lat": -77.53733425197859,
        "lon": -72.02156717351785,
        "alt_km": 845.4240330509592,
        "timestamp": "2025-12-17T15:50:10.165879+00:00",
        "meta_object_name": "IRIDIUM 33 DEB",
        "meta_object_id": "1997-051AK",
        "meta_epoch": "2025-12-17T08:13:04.300896",
        "meta_mean_motion": 14.2528934,
        "meta_eccentricity": 0.01147794,
        "meta_inclination": 86.3001,
        "meta_ra_of_asc_node": 91.0885,
        "meta_arg_of_pericenter": 146.7917,
        "meta_mean_anomaly": 282.3302,
        "meta_ephemeris_type": 0,
        "meta_classification_type": "U",
        "meta_norad_cat_id": 33866,
        "meta_element_set_no": 999,
        "meta_rev_at_epoch": 86876,
        "meta_bstar": 0.00050875561,
        "meta_mean_motion_dot": 1.302e-05,
        "meta_mean_motion_ddot": 0,
        "tle_line1": "1 33866U 97051AK  25351.34241089  .00001302  00000+0  50876-3 0  9999",
        "tle_line2": "2 33866  86.3001  91.0885 0114779 146.7917 282.3302 14.25289340868764"
      },
      "geometry": {
        "type": "Point",
        "coordinates": [
          -72.02156717351785,
          -77.53733425197859
        ]
      }
    },
    {
      "type": "Feature",
      "properties": {
        "norad_id": 33867,
        "name": "IRIDIUM 33 DEB",
        "group": "iridium-33-debris",
        "lat": 15.226918989917905,
        "lon": -11.47643902030954,
        "alt_km": 336.9276294607225,
        "timestamp": "2025-12-17T15:50:10.165891+00:00",
        "meta_object_name": "IRIDIUM 33 DEB",
        "meta_object_id": "1997-051AL",
        "meta_epoch": "2025-12-17T06:37:58.817280",
        "meta_mean_motion": 15.76455011,
        "meta_eccentricity": 0.0013434,
        "meta_inclination": 86.3646,
        "meta_ra_of_asc_node": 347.7336,
        "meta_arg_of_pericenter": 91.8207,
        "meta_mean_anomaly": 268.4606,
        "meta_ephemeris_type": 0,
        "meta_classification_type": "U",
        "meta_norad_cat_id": 33867,
        "meta_element_set_no": 999,
        "meta_rev_at_epoch": 89582,
        "meta_bstar": 0.0065040795,
        "meta_mean_motion_dot": 0.01150868,
        "meta_mean_motion_ddot": 0,
        "tle_line1": "1 33867U 97051AL  25351.27637520  .01150868  00000+0  65041-2 0  9993",
        "tle_line2": "2 33867  86.3646 347.7336 0013434  91.8207 268.4606 15.76455011895826"
      },
      "geometry": {
        "type": "Point",
        "coordinates": [
          -11.47643902030954,
          15.226918989917905
        ]
      }
    },
    {
      "type": "Feature",
      "properties": {
        "norad_id": 33870,
        "name": "IRIDIUM 33 DEB",
        "group": "iridium-33-debris",
        "lat": -0.587597702098806,
        "lon": 56.11473837775181,
        "alt_km": 757.227698864508,
        "timestamp": "2025-12-17T15:50:10.165902+00:00",
        "meta_object_name": "IRIDIUM 33 DEB",
        "meta_object_id": "1997-051AP",
        "meta_epoch": "2025-12-17T06:11:28.728096",
        "meta_mean_motion": 14.45875468,
        "meta_eccentricity": 0.00219986,
        "meta_inclination": 86.3748,
        "meta_ra_of_asc_node": 56.3242,
        "meta_arg_of_pericenter": 163.4371,
        "meta_mean_anomaly": 265.7184,
        "meta_ephemeris_type": 0,
        "meta_classification_type": "U",
        "meta_norad_cat_id": 33870,
        "meta_element_set_no": 999,
        "meta_rev_at_epoch": 88202,
        "meta_bstar": 0.00056140405,
        "meta_mean_motion_dot": 2.019e-05,
        "meta_mean_motion_ddot": 0,
        "tle_line1": "1 33870U 97051AP  25351.25797139  .00002019  00000+0  56140-3 0  9992",
        "tle_line2": "2 33870  86.3748  56.3242 0021998 163.4371 265.7184 14.45875468882020"
      },
      "geometry": {
        "type": "Point",
        "coordinates": [
          56.11473837775181,
          -0.587597702098806
        ]
      }
    },
    {
      "type": "Feature",
      "properties": {
        "norad_id": 33881,
        "name": "IRIDIUM 33 DEB",
        "group": "iridium-33-debris",
        "lat": 57.20329928805493,
        "lon": 110.23265959248918,
        "alt_km": 706.8549335252346,
        "timestamp": "2025-12-17T15:50:10.165913+00:00",
        "meta_object_name": "IRIDIUM 33 DEB",
        "meta_object_id": "1997-051BA",
        "meta_epoch": "2025-12-17T07:39:17.267040",
        "meta_mean_motion": 14.56656828,
        "meta_eccentricity": 0.00614641,
        "meta_inclination": 86.386,
        "meta_ra_of_asc_node": 104.7521,
        "meta_arg_of_pericenter": 159.9029,
        "meta_mean_anomaly": 271.764,
        "meta_ephemeris_type": 0,
        "meta_classification_type": "U",
        "meta_norad_cat_id": 33881,
        "meta_element_set_no": 999,
        "meta_rev_at_epoch": 87567,
        "meta_bstar": 0.0015468873,
        "meta_mean_motion_dot": 7.105e-05,
        "meta_mean_motion_ddot": 0,
        "tle_line1": "1 33881U 97051BA  25351.31894985  .00007105  00000+0  15469-2 0  9997",
        "tle_line2": "2 33881  86.3860 104.7521 0061464 159.9029 271.7640 14.56656828875673"
      },
      "geometry": {
        "type": "Point",
        "coordinates": [
          110.23265959248918,
          57.20329928805493
        ]
      }
    },
    {
      "type": "Feature",
      "properties": {
        "norad_id": 33884,
        "name": "IRIDIUM 33 DEB",
        "group": "iridium-33-debris",
        "lat": 13.645385452908247,
        "lon": 8.48105705650748,
        "alt_km": 635.9471702602059,
        "timestamp": "2025-12-17T15:50:10.165924+00:00",
        "meta_object_name": "IRIDIUM 33 DEB",
        "meta_object_id": "1997-051BD",
        "meta_epoch": "2025-12-17T07:44:26.629152",
        "meta_mean_motion": 14.77519226,
        "meta_eccentricity": 0.00093393,
        "meta_inclination": 86.3698,
        "meta_ra_of_asc_node": 7.7502,
        "meta_arg_of_pericenter": 306.1512,
        "meta_mean_anomaly": 74.5417,
        "meta_ephemeris_type": 0,
        "meta_classification_type": "U",
        "meta_norad_cat_id": 33884,
        "meta_element_set_no": 999,
        "meta_rev_at_epoch": 88915,
        "meta_bstar": 0.0011654844,
        "meta_mean_motion_dot": 8.344e-05,
        "meta_mean_motion_ddot": 0,
        "tle_line1": "1 33884U 97051BD  25351.32253043  .00008344  00000+0  11655-2 0  9994",
        "tle_line2": "2 33884  86.3698   7.7502 0009339 306.1512  74.5417 14.77519226889154"
      },
      "geometry": {
        "type": "Point",
        "coordinates": [
          8.48105705650748,
          13.645385452908247
        ]
      }
    }
  ]
}